{"type": "FeatureCollection", "features": [ {"type": "Feature", "properties": {"norad_id": 34538, "name": "IRIDIUM 33 DEB", "group": "iridium-33-debris", "lat": -43.418582737805345, "lon": -4.471954660650818, "alt_km": 738.8127052015998, "timestamp": "2025-12-27T13:34:49.680750+00:00", "meta": {"OBJECT_NAME": "IRIDIUM 33 DEB", "OBJECT_ID": "1997-051JF", "EPOCH": "2025-12-26T18:05:01.336416", "MEAN_MOTION": 14.42730445, "ECCENTRICITY": 0.0031825, "INCLINATION": 86.2767, "RA_OF_ASC_NODE": 359.4165, "ARG_OF_PERICENTER": 279.2395, "MEAN_ANOMALY": 140.4767, "EPHEMERIS_TYPE": 0, "CLASSIFICATION_TYPE": "U", "NORAD_CAT_ID": 34538, "ELEMENT_SET_NO": 999, "REV_AT_EPOCH": 87958, "BSTAR": 0.00099526831, "MEAN_MOTION_DOT": 3.352e-05, "MEAN_MOTION_DDOT": 0}, "tle": {"line1": "1 34538U 97051JF  25360.75348769  .00003352  00000+0  99527-3 0  9997", "line2": "2 34538  86.2767 359.4165 0031825 279.2395 140.4767 14.42730445879580"}}, "geometry": {"type": "Point", "coordinates": [-4.471954660650818, -43.418582737805345]}}, {"type": "Feature", "properties": {"norad_id": 34540, "name": "IRIDIUM 33 DEB", "group": "iridium-33-debris", "lat": -38.740799841925835, "lon": -62.13928778816236, "alt_km": 660.8853778532575, "timestamp": "2025-12-27T13:34:49.680760+00:00", "meta": {"OBJECT_NAME": "IRIDIUM 33 DEB", "OBJECT_ID": "1997-051JH", "EPOCH": "2025-12-27T02:26:44.045952", "MEAN_MOTION": 14.75620073, "ECCENTRICITY": 0.00185605, "INCLINATION": 86.3108, "RA_OF_ASC_NODE": 301.0402, "ARG_OF_PERICENTER": 111.9699, "MEAN_ANOMALY": 266.3781, "EPHEMERIS_TYPE": 0, "CLASSIFICATION_TYPE": "U", "NORAD_CAT_ID": 34540, "ELEMENT_SET_NO": 999, "REV_AT_EPOCH": 89233, "BSTAR": 0.0019662624, "MEAN_MOTION_DOT": 0.00013489, "MEAN_MOTION_DDOT": 0}, "tle": {"line1": "1 34540U 97051JH  25361.10189868  .00013489  00000+0  19663-2 0  9997", "line2": "2 34540  86.3108 301.0402 0018560 111.9699 266.3781 14.75620073892333"}}, "geometry": {"type": "Point", "coordinates": [-62.13928778816236, -38.740799841925835]}}, {"type": "Feature", "properties": {"norad_id": 34648, "name": "IRIDIUM 33 DEB", "group": "iridium-33-debris", "lat": -48.291093550176996, "lon": -88.10253399445466, "alt_km": 792.7623844027321, "timestamp": "2025-12-27T13:34:49.680770+00:00", "meta": {"OBJECT_NAME": "IRIDIUM 33 DEB", "OBJECT_ID": "1997-051JZ", "EPOCH": "2025-12-26T17:23:51.360000", "MEAN_MOTION": 14.11887507, "ECCENTRICITY": 0.01778864, "INCLINATION": 86.3901, "RA_OF_ASC_NODE": 276.2989, "ARG_OF_PERICENTER": 254.825, "MEAN_ANOMALY": 103.3201, "EPHEMERIS_TYPE": 0, "CLASSIFICATION_TYPE": "U", "NORAD_CAT_ID": 34648, "ELEMENT_SET_NO": 999, "REV_AT_EPOCH": 85158, "BSTAR": 0.0061458154, "MEAN_MOTION_DOT": 0.00013057, "MEAN_MOTION_DDOT": 0}, "tle": {"line1": "1 34648U 97051JZ  25360.72490000  .00013057  00000+0  61458-2 0  9996", "line2": "2 34648  86.3901 276.2989 0177886 254.8250 103.3201 14.11887507851589"}}, "geometry": {"type": "Point", "coordinates": [-88.10253399445466, -48.291093550176996]}}, {"type": "Feature", "properties": {"norad_id": 34651, "name": "IRIDIUM 33 DEB", "group": "iridium-33-debris", "lat": 44.25922556753662, "lon": 137.90159949394877, "alt_km": 839.2096517082173, "timestamp": "2025-12-27T13:34:49.680780+00:00", "meta": {"OBJECT_NAME": "IRIDIUM 33 DEB", "OBJECT_ID": "1997-051KC", "EPOCH": "2025-12-25T15:53:57.959232", "MEAN_MOTION": 14.26027654, "ECCENTRICITY": 0.0142018, "INCLINATION": 86.2827, "RA_OF_ASC_NODE": 135.0795, "ARG_OF_PERICENTER": 163.1805, "MEAN_ANOMALY": 197.4168, "EPHEMERIS_TYPE": 0, "CLASSIFICATION_TYPE": "U", "NORAD_CAT_ID": 34651, "ELEMENT_SET_NO": 999, "REV_AT_EPOCH": 86080, "BSTAR": 0.0036817, "MEAN_MOTION_DOT": 9.797e-05, "MEAN_MOTION_DDOT": 0}, "tle": {"line1": "1 34651U 97051KC  25359.66247638  .00009797  00000+0  36817-2 0  9995", "line2": "2 34651  86.2827 135.0795 0142018 163.1805 197.4168 14.26027654860809"}}, "geometry": {"type": "Point", "coordinates": [137.90159949394877, 44.25922556753662]}}, {"type": "Feature", "properties": {"norad_id": 34652, "name": "IRIDIUM 33 DEB", "group": "iridium-33-debris", "lat": -45.61166501385792, "lon": 157.1569985893392, "alt_km": 675.8044861433646, "timestamp": "2025-12-27T13:34:49.680791+00:00", "meta": {"OBJECT_NAME": "IRIDIUM 33 DEB", "OBJECT_ID": "1997-051KD", "EPOCH": "2025-12-27T06:16:50.056608", "MEAN_MOTION": 14.62192281, "ECCENTRICITY": 0.00255029, "INCLINATION": 86.3321, "RA_OF_ASC_NODE": 333.535, "ARG_OF_PERICENTER": 244.7138, "MEAN_ANOMALY": 180.9757, "EPHEMERIS_TYPE": 0, "CLASSIFICATION_TYPE": "U", "NORAD_CAT_ID": 34652, "ELEMENT_SET_NO": 999, "REV_AT_EPOCH": 88696, "BSTAR": 0.0010804277, "MEAN_MOTION_DOT": 5.485e-05, "MEAN_MOTION_DDOT": 0}, "tle": {"line1": "1 34652U 97051KD  25361.26169047  .00005485  00000+0  10804-2 0  9990", "line2": "2 34652  86.3321 333.5350 0025502 244.7138 180.9757 14.62192281886960"}}, "geometry": {"type": "Point", "coordinates": [157.1569985893392, -45.61166501385792]}}, {"type": "Feature", "properties": {"norad_id": 34690, "name": "IRIDIUM 33 DEB", "group": "iridium-33-debris", "lat": 75.00955415201578, "lon": 44.23255309396907, "alt_km": 702.5506847741381, "timestamp": "2025-12-27T13:34:49.680801+00:00", "meta": {"OBJECT_NAME": "IRIDIUM 33 DEB", "OBJECT_ID": "1997-051KM", "EPOCH": "2025-12-26T19:53:36.427776", "MEAN_MOTION": 14.55146043, "ECCENTRICITY": 0.00092349, "INCLINATION": 86.3773, "RA_OF_ASC_NODE": 30.867, "ARG_OF_PERICENTER": 341.6712, "MEAN_ANOMALY": 195.6004, "EPHEMERIS_TYPE": 0, "CLASSIFICATION_TYPE": "U", "NORAD_CAT_ID": 34690, "ELEMENT_SET_NO": 999, "REV_AT_EPOCH": 88299, "BSTAR": 0.00044241179, "MEAN_MOTION_DOT": 1.932e-05, "MEAN_MOTION_DDOT": 0}, "tle": {"line1": "1 34690U 97051KM  25360.82889384  .00001932  00000+0  44241-3 0  9992", "line2": "2 34690  86.3773  30.8670 0009234 341.6712 195.6004 14.55146043882998"}}, "geometry": {"type": "Point", "coordinates": [44.23255309396907, 75.00955415201578]}}, {"type": "Feature", "properties": {"norad_id": 34693, "name": "IRIDIUM 33 DEB", "group": "iridium-33-debris", "lat": 39.43360868545591, "lon": 113.39307879556827, "alt_km": 469.98057752166915, "timestamp": "2025-12-27T13:34:49.680811+00:00", "meta": {"OBJECT_NAME": "IRIDIUM 33 DEB", "OBJECT_ID": "1997-051KQ", "EPOCH": "2025-12-26T19:48:57.228768", "MEAN_MOTION": 15.31583943, "ECCENTRICITY": 0.00088429, "INCLINATION": 86.3049, "RA_OF_ASC_NODE": 296.8095, "ARG_OF_PERICENTER": 29.7643, "MEAN_ANOMALY": 351.8395, "EPHEMERIS_TYPE": 0, "CLASSIFICATION_TYPE": "U", "NORAD_CAT_ID": 34693, "ELEMENT_SET_NO": 999, "REV_AT_EPOCH": 89130, "BSTAR": 0.005056928, "MEAN_MOTION_DOT": 0.00157281, "MEAN_MOTION_DDOT": 0}, "tle": {"line1": "1 34693U 97051KQ  25360.82566237  .00157281  00000+0  50569-2 0  9992", "line2": "2 34693  86.3049 296.8095 0008842  29.7643 351.8395 15.31583943891306"}}, "geometry": {"type": "Point", "coordinates": [113.39307879556827, 39.43360868545591]}}, {"type": "Feature", "properties": {"norad_id": 34696, "name": "IRIDIUM 33 DEB", "group": "iridium-33-debris", "lat": 43.03211211328427, "lon": 24.192332967127726, "alt_km": 656.6841719109743, "timestamp": "2025-12-27T13:34:49.680821+00:00", "meta": {"OBJECT_NAME": "IRIDIUM 33 DEB", "OBJECT_ID": "1997-051KT", "EPOCH": "2025-12-27T02:10:03.448416", "MEAN_MOTION": 14.65770071, "ECCENTRICITY": 0.00737714, "INCLINATION": 86.1861, "RA_OF_ASC_NODE": 20.8432, "ARG_OF_PERICENTER": 119.2353, "MEAN_ANOMALY": 297.1257, "EPHEMERIS_TYPE": 0, "CLASSIFICATION_TYPE": "U", "NORAD_CAT_ID": 34696, "ELEMENT_SET_NO": 999, "REV_AT_EPOCH": 86883, "BSTAR": 0.0050796435, "MEAN_MOTION_DOT": 0.00028933, "MEAN_MOTION_DDOT": 0}, "tle": {"line1": "1 34696U 97051KT  25361.09031769  .00028933  00000+0  50796-2 0  9995", "line2": "2 34696  86.1861  20.8432 0073771 119.2353 297.1257 14.65770071868832"}}, "geometry": {"type": "Point", "coordinates": [24.192332967127726, 43.03211211328427]}}, {"type": "Feature", "properties": {"norad_id": 34765, "name": "IRIDIUM 33 DEB", "group": "iridium-33-debris", "lat": 43.58490090554613, "lon": 29.893098800112067, "alt_km": 759.0406322857843, "timestamp": "2025-12-27T13:34:49.680831+00:00", "meta": {"OBJECT_NAME": "IRIDIUM 33 DEB", "OBJECT_ID": "1997-051LJ", "EPOCH": "2025-12-27T02:00:13.091040", "MEAN_MOTION": 14.40501375, "ECCENTRICITY": 0.00169933, "INCLINATION": 86.3377, "RA_OF_ASC_NODE": 26.6052, "ARG_OF_PERICENTER": 163.84, "MEAN_ANOMALY": 260.2304, "EPHEMERIS_TYPE": 0, "CLASSIFICATION_TYPE": "U", "NORAD_CAT_ID": 34765, "ELEMENT_SET_NO": 999, "REV_AT_EPOCH": 87820, "BSTAR": 0.00044425605, "MEAN_MOTION_DOT": 1.435e-05, "MEAN_MOTION_DDOT": 0}, "tle": {"line1": "1 34765U 97051LJ  25361.08348485  .00001435  00000+0  44426-3 0  9999", "line2": "2 34765  86.3377  26.6052 0016993 163.8400 260.2304 14.40501375878204"}}, "geometry": {"type": "Point", "coordinates": [29.893098800112067, 43.58490090554613]}}, {"type": "Feature", "properties": {"norad_id": 34833, "name": "IRIDIUM 33 DEB", "group": "iridium-33-debris", "lat": 65.32259820773677, "lon": 52.49536469663111, "alt_km": 696.7333948800069, "timestamp": "2025-12-27T13:34:49.680841+00:00", "meta": {"OBJECT_NAME": "IRIDIUM 33 DEB", "OBJECT_ID": "1997-051MH", "EPOCH": "2025-12-27T03:36:29.185920", "MEAN_MOTION": 14.52459738, "ECCENTRICITY": 0.00210883, "INCLINATION": 86.3923, "RA_OF_ASC_NODE": 44.7821, "ARG_OF_PERICENTER": 54.3467, "MEAN_ANOMALY": 359.944, "EPHEMERIS_TYPE": 0, "CLASSIFICATION_TYPE": "U", "NORAD_CAT_ID": 34833, "ELEMENT_SET_NO": 999, "REV_AT_EPOCH": 87924, "BSTAR": 0.00081313888, "MEAN_MOTION_DOT": 3.345e-05, "MEAN_MOTION_DDOT": 0}, "tle": {"line1": "1 34833U 97051MH  25361.15033780  .00003345  00000+0  81314-3 0  9991", "line2": "2 34833  86.3923  44.7821 0021088  54.3467 359.9440 14.52459738879240"}}, "geometry": {"type": "Point", "coordinates": [52.49536469663111, 65.32259820773677]}}]}